{
  "norad_id": 58389,
  "name": "STARLINK-30938",
  "history": [
    {
      "epoch": "2026-03-28T19:10:21.563616",
      "apogee_km": 475.99369781546284,
      "perigee_km": 474.459640891715,
      "latitude_deg": -34.09645367337226,
      "longitude_deg": 95.59062624000944,
      "semi_major_axis_km": 6853.363669353589,
      "eccentricity": 0.00011192,
      "inclination_deg": 53.1598,
      "raan_deg": 272.5564,
      "arg_perigee_deg": 92.7182,
      "mean_anomaly_deg": 267.3947,
      "mean_motion_rev_day": 15.30196115
    }
  ]
}