{"fetched_at":"2026-03-30T06:02:59Z","count":15439,"tles":[{"name":"STARLINK-30938","line1":"1 58389U 23178R   26087.79886069  .00001110  00000+0  49593-4 0  9996","line2":"2 58389  53.1598 272.5564 0001119  92.7182 267.3947 15.30196115132813","category":"Starlink"}]}